CCSDS_OMM_VERS = 2.0
CREATION_DATE  = 
ORIGINATOR     = 

OBJECT_NAME    = UNKNOWN
OBJECT_ID      = 
CENTER_NAME    = EARTH
REF_FRAME      = TEME
TIME_SYSTEM    = UTC
MEAN_ELEMENT_THEORY = SGP/SGP4

EPOCH          = 2026-01-06T08:23:06.879552
MEAN_MOTION    = 12.22071988
ECCENTRICITY   = .04996041
INCLINATION    = 82.0669
RA_OF_ASC_NODE = 52.5223
ARG_OF_PERICENTER = 67.8758
MEAN_ANOMALY   = 297.4556

EPHEMERIS_TYPE = 0
CLASSIFICATION_TYPE = U
NORAD_CAT_ID   = 270061
ELEMENT_SET_NO = 999
REV_AT_EPOCH   = 27197
BSTAR          = .12252114E-2
MEAN_MOTION_DOT = .206E-5
MEAN_MOTION_DDOT = 0

CCSDS_OMM_VERS = 2.0
CREATION_DATE  = 
ORIGINATOR     = 

OBJECT_NAME    = UNKNOWN
OBJECT_ID      = 
CENTER_NAME    = EARTH
REF_FRAME      = TEME
TIME_SYSTEM    = UTC
MEAN_ELEMENT_THEORY = SGP/SGP4

EPOCH          = 2026-01-12T14:56:58.432128
MEAN_MOTION    = 14.24236832
ECCENTRICITY   = .00355979
INCLINATION    = 98.8465
RA_OF_ASC_NODE = 325.1363
ARG_OF_PERICENTER = 334.8037
MEAN_ANOMALY   = 25.1403

EPHEMERIS_TYPE = 0
CLASSIFICATION_TYPE = U
NORAD_CAT_ID   = 270063
ELEMENT_SET_NO = 999
REV_AT_EPOCH   = 31844
BSTAR          = .14686255E-3
MEAN_MOTION_DOT = .295E-5
MEAN_MOTION_DDOT = 0

CCSDS_OMM_VERS = 2.0
CREATION_DATE  = 
ORIGINATOR     = 

OBJECT_NAME    = UNKNOWN
OBJECT_ID      = 
CENTER_NAME    = EARTH
REF_FRAME      = TEME
TIME_SYSTEM    = UTC
MEAN_ELEMENT_THEORY = SGP/SGP4

EPOCH          = 2026-01-11T09:13:31.502496
MEAN_MOTION    = 14.47515313
ECCENTRICITY   = .00113731
INCLINATION    = 97.9872
RA_OF_ASC_NODE = 241.2269
ARG_OF_PERICENTER = 13.9377
MEAN_ANOMALY   = 346.2128

EPHEMERIS_TYPE = 0
CLASSIFICATION_TYPE = U
NORAD_CAT_ID   = 270064
ELEMENT_SET_NO = 999
REV_AT_EPOCH   = 32278
BSTAR          = .16121091E-3
MEAN_MOTION_DOT = .553E-5
MEAN_MOTION_DDOT = 0

CCSDS_OMM_VERS = 2.0
CREATION_DATE  = 
ORIGINATOR     = 

OBJECT_NAME    = UNKNOWN
OBJECT_ID      = 
CENTER_NAME    = EARTH
REF_FRAME      = TEME
TIME_SYSTEM    = UTC
MEAN_ELEMENT_THEORY = SGP/SGP4

EPOCH          = 2026-01-12T16:04:47.518752
MEAN_MOTION    = 12.22970254
ECCENTRICITY   = .01323223
INCLINATION    = 74.0024
RA_OF_ASC_NODE = 7.2700
ARG_OF_PERICENTER = 352.7379
MEAN_ANOMALY   = 7.1737

EPHEMERIS_TYPE = 0
CLASSIFICATION_TYPE = U
NORAD_CAT_ID   = 270065
ELEMENT_SET_NO = 999
REV_AT_EPOCH   = 27370
BSTAR          = .69693287E-3
MEAN_MOTION_DOT = .62E-6
MEAN_MOTION_DDOT = 0

CCSDS_OMM_VERS = 2.0
CREATION_DATE  = 
ORIGINATOR     = 

OBJECT_NAME    = UNKNOWN
OBJECT_ID      = 
CENTER_NAME    = EARTH
REF_FRAME      = TEME
TIME_SYSTEM    = UTC
MEAN_ELEMENT_THEORY = SGP/SGP4

EPOCH          = 2026-01-13T00:30:08.664768
MEAN_MOTION    = 14.62867887
ECCENTRICITY   = .00101713
INCLINATION    = 32.2228
RA_OF_ASC_NODE = 124.9956
ARG_OF_PERICENTER = 311.7178
MEAN_ANOMALY   = 48.2599

EPHEMERIS_TYPE = 0
CLASSIFICATION_TYPE = U
NORAD_CAT_ID   = 270066
ELEMENT_SET_NO = 999
REV_AT_EPOCH   = 32777
BSTAR          = .79680484E-4
MEAN_MOTION_DOT = .45E-5
MEAN_MOTION_DDOT = 0

CCSDS_OMM_VERS = 2.0
CREATION_DATE  = 
ORIGINATOR     = 

OBJECT_NAME    = UNKNOWN
OBJECT_ID      = 
CENTER_NAME    = EARTH
REF_FRAME      = TEME
TIME_SYSTEM    = UTC
MEAN_ELEMENT_THEORY = SGP/SGP4

EPOCH          = 2026-01-13T05:26:05.910720
MEAN_MOTION    = 12.96474849
ECCENTRICITY   = .00303203
INCLINATION    = 90.2471
RA_OF_ASC_NODE = 10.2999
ARG_OF_PERICENTER = 165.2253
MEAN_ANOMALY   = 194.9760

EPHEMERIS_TYPE = 0
CLASSIFICATION_TYPE = U
NORAD_CAT_ID   = 270067
ELEMENT_SET_NO = 999
REV_AT_EPOCH   = 29011
BSTAR          = .56019487E-3
MEAN_MOTION_DOT = .168E-5
MEAN_MOTION_DDOT = 0

CCSDS_OMM_VERS = 2.0
CREATION_DATE  = 
ORIGINATOR     = 

OBJECT_NAME    = UNKNOWN
OBJECT_ID      = 
CENTER_NAME    = EARTH
REF_FRAME      = TEME
TIME_SYSTEM    = UTC
MEAN_ELEMENT_THEORY = SGP/SGP4

EPOCH          = 2026-01-12T13:31:35.649120
MEAN_MOTION    = 12.68003830
ECCENTRICITY   = .07682128
INCLINATION    = 73.1548
RA_OF_ASC_NODE = 113.4537
ARG_OF_PERICENTER = 101.9968
MEAN_ANOMALY   = 266.8187

EPHEMERIS_TYPE = 0
CLASSIFICATION_TYPE = U
NORAD_CAT_ID   = 270068
ELEMENT_SET_NO = 999
REV_AT_EPOCH   = 28263
BSTAR          = .10858149E-3
MEAN_MOTION_DOT = .52E-6
MEAN_MOTION_DDOT = 0

CCSDS_OMM_VERS = 2.0
CREATION_DATE  = 
ORIGINATOR     = 

OBJECT_NAME    = UNKNOWN
OBJECT_ID      = 
CENTER_NAME    = EARTH
REF_FRAME      = TEME
TIME_SYSTEM    = UTC
MEAN_ELEMENT_THEORY = SGP/SGP4

EPOCH          = 2026-01-09T19:14:36.667392
MEAN_MOTION    = 14.11871570
ECCENTRICITY   = .00627325
INCLINATION    = 46.9571
RA_OF_ASC_NODE = 192.2810
ARG_OF_PERICENTER = 97.1051
MEAN_ANOMALY   = 263.6953

EPHEMERIS_TYPE = 0
CLASSIFICATION_TYPE = U
NORAD_CAT_ID   = 270069
ELEMENT_SET_NO = 999
REV_AT_EPOCH   = 31209
BSTAR          = .39987615E-2
MEAN_MOTION_DOT = .7353E-4
MEAN_MOTION_DDOT = 0

CCSDS_OMM_VERS = 2.0
CREATION_DATE  = 
ORIGINATOR     = 

OBJECT_NAME    = UNKNOWN
OBJECT_ID      = 
CENTER_NAME    = EARTH
REF_FRAME      = TEME
TIME_SYSTEM    = UTC
MEAN_ELEMENT_THEORY = SGP/SGP4

EPOCH          = 2026-01-12T15:32:59.026560
MEAN_MOTION    = 13.50207597
ECCENTRICITY   = .07220369
INCLINATION    = 62.8015
RA_OF_ASC_NODE = 2.1828
ARG_OF_PERICENTER = 350.2120
MEAN_ANOMALY   = 8.5442

EPHEMERIS_TYPE = 0
CLASSIFICATION_TYPE = U
NORAD_CAT_ID   = 270070
ELEMENT_SET_NO = 999
REV_AT_EPOCH   = 30143
BSTAR          = .70922218E-3
MEAN_MOTION_DOT = .2318E-4
MEAN_MOTION_DDOT = 0

CCSDS_OMM_VERS = 2.0
CREATION_DATE  = 
ORIGINATOR     = 

OBJECT_NAME    = UNKNOWN
OBJECT_ID      = 
CENTER_NAME    = EARTH
REF_FRAME      = TEME
TIME_SYSTEM    = UTC
MEAN_ELEMENT_THEORY = SGP/SGP4

EPOCH          = 2025-12-20T21:34:06.913632
MEAN_MOTION    = 11.27809924
ECCENTRICITY   = .01476511
INCLINATION    = 64.7966
RA_OF_ASC_NODE = 213.9083
ARG_OF_PERICENTER = 62.8664
MEAN_ANOMALY   = 298.7231

EPHEMERIS_TYPE = 0
CLASSIFICATION_TYPE = U
NORAD_CAT_ID   = 270071
ELEMENT_SET_NO = 999
REV_AT_EPOCH   = 24997
BSTAR          = .71513351E-3
MEAN_MOTION_DOT = -.17E-6
MEAN_MOTION_DDOT = 0

CCSDS_OMM_VERS = 2.0
CREATION_DATE  = 
ORIGINATOR     = 

OBJECT_NAME    = UNKNOWN
OBJECT_ID      = 
CENTER_NAME    = EARTH
REF_FRAME      = TEME
TIME_SYSTEM    = UTC
MEAN_ELEMENT_THEORY = SGP/SGP4

EPOCH          = 2026-01-12T17:53:08.958048
MEAN_MOTION    = 11.27763729
ECCENTRICITY   = .01515054
INCLINATION    = 64.8081
RA_OF_ASC_NODE = 186.3515
ARG_OF_PERICENTER = 40.0567
MEAN_ANOMALY   = 321.1415

EPHEMERIS_TYPE = 0
CLASSIFICATION_TYPE = U
NORAD_CAT_ID   = 270072
ELEMENT_SET_NO = 999
REV_AT_EPOCH   = 25247
BSTAR          = .74672227E-3
MEAN_MOTION_DOT = -.16E-6
MEAN_MOTION_DDOT = 0

CCSDS_OMM_VERS = 2.0
CREATION_DATE  = 
ORIGINATOR     = 

OBJECT_NAME    = UNKNOWN
OBJECT_ID      = 
CENTER_NAME    = EARTH
REF_FRAME      = TEME
TIME_SYSTEM    = UTC
MEAN_ELEMENT_THEORY = SGP/SGP4

EPOCH          = 2026-01-11T09:51:01.729152
MEAN_MOTION    = 13.23080123
ECCENTRICITY   = .01528199
INCLINATION    = 100.3442
RA_OF_ASC_NODE = 74.4029
ARG_OF_PERICENTER = 78.9504
MEAN_ANOMALY   = 282.8757

EPHEMERIS_TYPE = 0
CLASSIFICATION_TYPE = U
NORAD_CAT_ID   = 270073
ELEMENT_SET_NO = 999
REV_AT_EPOCH   = 29558
BSTAR          = .10258125E-2
MEAN_MOTION_DOT = .416E-5
MEAN_MOTION_DDOT = 0

CCSDS_OMM_VERS = 2.0
CREATION_DATE  = 
ORIGINATOR     = 

OBJECT_NAME    = UNKNOWN
OBJECT_ID      = 
CENTER_NAME    = EARTH
REF_FRAME      = TEME
TIME_SYSTEM    = UTC
MEAN_ELEMENT_THEORY = SGP/SGP4

EPOCH          = 2026-01-13T11:09:26.141760
MEAN_MOTION    = 12.86051208
ECCENTRICITY   = .04694568
INCLINATION    = 63.2985
RA_OF_ASC_NODE = 76.9879
ARG_OF_PERICENTER = 15.9788
MEAN_ANOMALY   = 345.5457

EPHEMERIS_TYPE = 0
CLASSIFICATION_TYPE = U
NORAD_CAT_ID   = 270074
ELEMENT_SET_NO = 999
REV_AT_EPOCH   = 28776
BSTAR          = .79076691E-3
MEAN_MOTION_DOT = .238E-5
MEAN_MOTION_DDOT = 0

CCSDS_OMM_VERS = 2.0
CREATION_DATE  = 
ORIGINATOR     = 

OBJECT_NAME    = UNKNOWN
OBJECT_ID      = 
CENTER_NAME    = EARTH
REF_FRAME      = TEME
TIME_SYSTEM    = UTC
MEAN_ELEMENT_THEORY = SGP/SGP4

EPOCH          = 2026-01-13T04:26:05.988192
MEAN_MOTION    = 14.32352318
ECCENTRICITY   = .01057293
INCLINATION    = 99.2601
RA_OF_ASC_NODE = 346.0830
ARG_OF_PERICENTER = 35.7511
MEAN_ANOMALY   = 325.0690

EPHEMERIS_TYPE = 0
CLASSIFICATION_TYPE = U
NORAD_CAT_ID   = 270075
ELEMENT_SET_NO = 999
REV_AT_EPOCH   = 31271
BSTAR          = .3527411E-2
MEAN_MOTION_DOT = .10104E-3
MEAN_MOTION_DDOT = 0

CCSDS_OMM_VERS = 2.0
CREATION_DATE  = 
ORIGINATOR     = 

OBJECT_NAME    = UNKNOWN
OBJECT_ID      = 
CENTER_NAME    = EARTH
REF_FRAME      = TEME
TIME_SYSTEM    = UTC
MEAN_ELEMENT_THEORY = SGP/SGP4

EPOCH          = 2026-01-14T04:20:41.734176
MEAN_MOTION    = 13.66800727
ECCENTRICITY   = .02718923
INCLINATION    = 98.3424
RA_OF_ASC_NODE = 177.4193
ARG_OF_PERICENTER = 187.4508
MEAN_ANOMALY   = 172.2562

EPHEMERIS_TYPE = 0
CLASSIFICATION_TYPE = U
NORAD_CAT_ID   = 270077
ELEMENT_SET_NO = 999
REV_AT_EPOCH   = 30538
BSTAR          = .81310011E-3
MEAN_MOTION_DOT = .839E-5
MEAN_MOTION_DDOT = 0

CCSDS_OMM_VERS = 2.0
CREATION_DATE  = 
ORIGINATOR     = 

OBJECT_NAME    = UNKNOWN
OBJECT_ID      = 
CENTER_NAME    = EARTH
REF_FRAME      = TEME
TIME_SYSTEM    = UTC
MEAN_ELEMENT_THEORY = SGP/SGP4

EPOCH          = 2026-01-13T09:41:43.964448
MEAN_MOTION    = 14.35900744
ECCENTRICITY   = .00195226
INCLINATION    = 86.3917
RA_OF_ASC_NODE = 65.4266
ARG_OF_PERICENTER = 121.4371
MEAN_ANOMALY   = 238.8738

EPHEMERIS_TYPE = 0
CLASSIFICATION_TYPE = U
NORAD_CAT_ID   = 270078
ELEMENT_SET_NO = 999
REV_AT_EPOCH   = 32098
BSTAR          = .16826141E-3
MEAN_MOTION_DOT = .508E-5
MEAN_MOTION_DDOT = 0

